[{"OBJECT_NAME":"STARLINK-5822","OBJECT_ID":"2023-088S","EPOCH":"2026-03-09T19:02:13.298208","MEAN_MOTION":15.02535993,"ECCENTRICITY":0.00012372,"INCLINATION":43.003,"RA_OF_ASC_NODE":107.0455,"ARG_OF_PERICENTER":269.5998,"MEAN_ANOMALY":90.4703,"EPHEMERIS_TYPE":0,"CLASSIFICATION_TYPE":"U","NORAD_CAT_ID":57064,"ELEMENT_SET_NO":999,"REV_AT_EPOCH":14940,"BSTAR":6.4724725e-5,"MEAN_MOTION_DOT":6.71e-6,"MEAN_MOTION_DDOT":0},{"OBJECT_NAME":"CZ-6A DEB","OBJECT_ID":"2022-151BB","EPOCH":"2026-03-09T17:16:48.853632","MEAN_MOTION":14.94828895,"ECCENTRICITY":0.00449007,"INCLINATION":98.6423,"RA_OF_ASC_NODE":141.5544,"ARG_OF_PERICENTER":201.6501,"MEAN_ANOMALY":158.2819,"EPHEMERIS_TYPE":0,"CLASSIFICATION_TYPE":"U","NORAD_CAT_ID":54308,"ELEMENT_SET_NO":999,"REV_AT_EPOCH":17599,"BSTAR":0.0053055882,"MEAN_MOTION_DOT":0.00059316,"MEAN_MOTION_DDOT":0}]
